420P/Hill,e,14.5038,173.9531,157.1078,5.527648,0.0758392,0.49555337,353.9650,03/04.0/2022,2000,g 11.5,4.0
# From MPEC 2021-W31
421P/McNaught,e,10.0797,55.3483,259.8324,5.075309,0.0862006,0.67549866,34.6689,03/04.0/2022,2000,g 14.0,4.0
# From MPEC 2022-A21
422P/Christensen,e,39.5415,36.0411,305.1568,6.321271,0.0620151,0.50876618,3.0499,03/04.0/2022,2000,g 11.0,4.0
# From MPEC 2022-A21
423P/Lemmon,e,8.3458,33.3070,80.3115,6.165887,0.0643740,0.12097548,10.7069,03/04.0/2022,2000,g  8.0,4.0
# From MPEC 2022-CN4
424P/LaSagra,e,8.6856,51.1780,312.4751,4.413846,0.1062865,0.69126279,13.1123,03/04.0/2022,2000,g 17.0,4.0
# From MPEC 2022-D36
425P/Kowalski,e,16.4207,210.0863,200.7481,6.330822,0.0618748,0.54347947,10.1803,03/04.0/2022,2000,g 12.0,4.0
# From MPEC 2021-Y10
426P/PANSTARRS,e,17.7739,280.5222,119.1524,3.186005,0.1733143,0.16129984,263.0917,03/04.0/2022,2000,g 13.5,4.0
# From MPEC 2022-C56
428P/Gibbs,e,8.5150,299.3365,36.8191,3.484266,0.1515434,0.51950189,44.4530,03/04.0/2022,2000,g 15.0,4.0
# From MPEC 2022-C56
429P/LINEAR-Hill,e,7.5220,322.0733,75.5367,3.550536,0.1473205,0.49127981,8.9662,03/04.0/2022,2000,g 15.5,4.0
# From MPEC 2022-CN4
430P/Scotti,e,4.4749,54.6724,94.5012,3.106917,0.1799739,0.49962402,16.5176,03/04.0/2022,2000,g 16.5,4.0
# From MPEC 2022-D36
431P/Scotti,e,22.3921,202.8463,199.8561,3.472394,0.1523213,0.47768591,2.8382,03/04.0/2022,2000,g 14.0,4.0
# From MPEC 2021-U31
432P/PANSTARRS,e,10.0690,239.1434,105.2440,3.035708,0.1863434,0.24207924,34.5891,03/04.0/2022,2000,g 17.0,4.0
# From MPEC 2022-D36
434P/Tenagra,e,6.3397,288.9674,128.0494,4.127741,0.1175264,0.27430407,15.1842,03/04.0/2022,2000,g 13.0,4.0
# From MPEC 2021-W31
435P/PANSTARRS,e,18.8826,98.5499,244.1507,3.018405,0.1879480,0.31873286,41.2610,03/04.0/2022,2000,g 17.0,4.0
# From MPEC 2022-C56
436P/Garradd,e,20.2103,87.1899,282.5960,5.929371,0.0682639,0.66984387,5.8364,03/04.0/2022,2000,g 14.5,4.0
# From MPEC 2021-Y10
437P/PANSTARRS,e,3.6897,245.8688,206.7087,4.558420,0.1012704,0.25408029,343.0460,03/04.0/2022,2000,g 13.0,4.0
# From MPEC 2021-W47
438P/Christensen,e,8.2883,260.1560,58.9383,3.846821,0.1306325,0.41578038,91.1339,03/04.0/2022,2000,g 14.5,4.0
# From MPEC 2022-C56
439P/LINEAR,e,7.1143,56.4175,341.9958,3.487455,0.1513356,0.46946262,28.7386,03/04.0/2022,2000,g 13.5,4.0
# From MPEC 2022-D36
440P/Kobayashi,e,12.3395,328.8822,183.3203,8.584681,0.0391848,0.76047664,358.9830,03/04.0/2022,2000,g 15.5,4.0
# From MPC107687
1I/`Oumuamua,h,09/09.4886/2017,122.6778,24.5997,241.6845,1.199252,0.255240,2000,23.0,2.0
# From MPEC 2020-K19
2I/Borisov,h,12/08.5549/2019,44.0527,308.1480,209.1251,3.356636,2.006548,2000,11.0,4.0
